NORAD_CAT_ID,OBJECT_NAME,OBJECT_TYPE,EPOCH,MEAN_MOTION,ECCENTRICITY,INCLINATION,RA_OF_ASC_NODE,ARG_OF_PERICENTER,MEAN_ANOMALY,BSTAR,MEAN_MOTION_DOT,MEAN_MOTION_DDOT,TLE_LINE0,TLE_LINE1,TLE_LINE2,SEMIMAJOR_AXIS,PERIOD,APOGEE,PERIGEE,DECAYED
52565.0,STARLINK-3911,PAYLOAD,2023-09-23 05:32:10,15.08856719,0.000105,53.2159,192.4605,83.0613,277.0499,0.00039007,5.928e-05,0.0,0 STARLINK-3911,1 52565U 22051AJ  23266.23067306  .00005928  00000-0  39007-3 0  9995,2 52565  53.2159 192.4605 0001050  83.0613 277.0499 15.08856719 75947,6917.829,95.436,540.421,538.968,0.0
52565.0,STARLINK-3911,PAYLOAD,2023-09-24 00:36:47,15.08843836,0.0001297,53.2154,188.8909,107.6137,252.4997,-2.4817e-05,-6.83e-06,0.0,0 STARLINK-3911,1 52565U 22051AJ  23267.02555479 -.00000683  00000-0 -24817-4 0  9995,2 52565  53.2154 188.8909 0001297 107.6137 252.4997 15.08843836 76133,6917.869,95.437,540.631,538.836,0.0
52565.0,STARLINK-3911,PAYLOAD,2023-09-24 05:22:57,15.08848944,0.0001302,53.216,187.9986,100.9344,259.1795,0.00012213,1.657e-05,0.0,0 STARLINK-3911,1 52565U 22051AJ  23267.22427320  .00001657  00000-0  12213-3 0  9996,2 52565  53.2160 187.9986 0001302 100.9344 259.1795 15.08848944 76098,6917.853,95.437,540.619,538.817,0.0
52565.0,STARLINK-3911,PAYLOAD,2023-09-25 02:02:57,15.08852985,0.0001159,53.216,184.134,110.0287,250.083,0.00028437,4.242e-05,0.0,0 STARLINK-3911,1 52565U 22051AJ  23268.08539263  .00004242  00000-0  28437-3 0  9999,2 52565  53.2160 184.1340 0001159 110.0287 250.0830 15.08852985 76291,6917.841,95.437,540.507,538.904,0.0
52565.0,STARLINK-3911,PAYLOAD,2023-09-25 03:38:21,15.08855651,0.0001366,53.216,183.8362,85.8197,274.2951,0.00037171,5.635e-05,0.0,0 STARLINK-3911,1 52565U 22051AJ  23268.15163311  .00005635  00000-0  37171-3 0  9996,2 52565  53.2160 183.8362 0001366  85.8197 274.2951 15.08855651 76239,6917.833,95.437,540.643,538.753,0.0
52565.0,STARLINK-3911,PAYLOAD,2023-09-26 01:53:44,15.08871722,0.0001494,53.2165,179.6718,93.7902,266.3261,0.00084935,0.00013267,0.0,0 STARLINK-3911,1 52565U 22051AJ  23269.07898389  .00013267  00000-0  84935-3 0  9998,2 52565  53.2165 179.6718 0001494  93.7902 266.3261 15.08871722 76374,6917.783,95.436,540.682,538.615,0.0
52565.0,STARLINK-3911,PAYLOAD,2023-09-27 00:09:09,15.08828247,0.0001465,53.2162,175.508,104.8454,255.2701,-1.9957e-05,-6.05e-06,0.0,0 STARLINK-3911,1 52565U 22051AJ  23270.00635564 -.00000605  00000-0 -19957-4 0  9994,2 52565  53.2162 175.5080 0001465 104.8454 255.2701 15.08828247 76585,6917.916,95.438,540.795,538.768,0.0
52565.0,STARLINK-3911,PAYLOAD,2023-09-27 11:16:51,15.08820997,0.0001446,53.2161,173.4275,99.0061,261.1095,1.2771e-05,-8.5e-07,0.0,0 STARLINK-3911,1 52565U 22051AJ  23270.47004460 -.00000085  00000-0  12771-4 0  9998,2 52565  53.2161 173.4275 0001446  99.0061 261.1095 15.08820997 76581,6917.938,95.439,540.804,538.803,0.0
52565.0,STARLINK-3911,PAYLOAD,2023-09-27 23:59:57,15.08829437,0.000136,53.2158,171.0513,96.5364,263.5783,-1.9511e-05,-5.98e-06,0.0,0 STARLINK-3911,1 52565U 22051AJ  23270.99996867 -.00000598  00000-0 -19511-4 0  9995,2 52565  53.2158 171.0513 0001360  96.5364 263.5783 15.08829437 76666,6917.913,95.438,540.719,538.837,0.0
52565.0,STARLINK-3911,PAYLOAD,2023-09-28 22:15:21,15.0884965,0.0001384,53.2162,166.8873,100.4328,259.682,0.00056899,8.781e-05,0.0,0 STARLINK-3911,1 52565U 22051AJ  23271.92732723  .00008781  00000-0  56899-3 0  9997,2 52565  53.2162 166.8873 0001384 100.4328 259.6820 15.08849650 76806,6917.851,95.437,540.673,538.758,0.0
52565.0,STARLINK-3911,PAYLOAD,2023-09-28 23:50:44,15.08855607,0.00014,53.216,166.5907,95.9398,264.1754,0.00070209,0.00010908,0.0,0 STARLINK-3911,1 52565U 22051AJ  23271.99356648  .00010908  00000-0  70209-3 0  9997,2 52565  53.2160 166.5907 0001400  95.9398 264.1754 15.08855607 76887,6917.833,95.437,540.666,538.729,0.0
52565.0,STARLINK-3911,PAYLOAD,2023-09-29 23:41:30,15.08855094,0.0001428,53.2158,162.1313,84.1916,275.9239,0.00028566,4.263e-05,0.0,0 STARLINK-3911,1 52565U 22051AJ  23272.98715972  .00004263  00000-0  28566-3 0  9992,2 52565  53.2158 162.1313 0001428  84.1916 275.9239 15.08855094 77039,6917.834,95.437,540.687,538.711,0.0
52565.0,STARLINK-3911,PAYLOAD,2023-09-30 09:13:49,15.08843414,0.0001489,53.2164,160.3457,80.4995,279.6166,-3.8623e-05,-9.03e-06,0.0,0 STARLINK-3911,1 52565U 22051AJ  23273.38460173 -.00000903  00000-0 -38623-4 0  9992,2 52565  53.2164 160.3457 0001489  80.4995 279.6166 15.08843414 77097,6917.87,95.437,540.765,538.705,0.0
52565.0,STARLINK-3911,PAYLOAD,2023-09-30 17:10:47,15.08790536,0.0002089,53.2178,158.8649,80.4086,279.7142,0.0015671,0.00024707,0.0,0 STARLINK-3911,1 52565U 22051AJ  23273.71582823  .00024707  00000-0  15671-2 0  9998,2 52565  53.2178 158.8649 0002089  80.4086 279.7142 15.08790536 77142,6918.032,95.441,541.342,538.451,0.0
52565.0,STARLINK-3911,PAYLOAD,2023-09-30 23:32:18,15.0883116,0.0001655,53.217,157.674,92.4218,267.6964,0.00013666,1.887e-05,0.0,0 STARLINK-3911,1 52565U 22051AJ  23273.98076886  .00001887  00000-0  13666-3 0  9991,2 52565  53.2170 157.6740 0001655  92.4218 267.6964 15.08831160 77182,6917.907,95.438,540.917,538.627,0.0
52565.0,STARLINK-3911,PAYLOAD,2023-10-01 09:04:36,15.08841345,0.0001567,53.2173,155.8896,104.2772,255.8394,6.0711e-05,6.78e-06,0.0,0 STARLINK-3911,1 52565U 22051AJ  23274.37820438  .00000678  00000-0  60711-4 0  9996,2 52565  53.2173 155.8896 0001567 104.2772 255.8394 15.08841345 77245,6917.876,95.437,540.825,538.657,0.0
52565.0,STARLINK-3911,PAYLOAD,2023-10-01 20:12:18,15.08839974,0.0001318,53.2153,153.8048,98.0297,262.0845,0.00017436,2.488e-05,0.0,0 STARLINK-3911,1 52565U 22051AJ  23274.84188652  .00002488  00000-0  17436-3 0  9999,2 52565  53.2153 153.8048 0001318  98.0297 262.0845 15.08839974 77242,6917.88,95.438,540.657,538.834,0.0
52565.0,STARLINK-3911,PAYLOAD,2023-10-02 20:03:06,15.08836804,0.0001257,53.215,149.3461,92.9205,267.1931,0.00012775,1.746e-05,0.0,0 STARLINK-3911,1 52565U 22051AJ  23275.83548968  .00001746  00000-0  12775-3 0  9996,2 52565  53.2150 149.3461 0001257  92.9205 267.1931 15.08836804 77467,6917.89,95.438,540.625,538.886,0.0
52565.0,STARLINK-3911,PAYLOAD,2023-10-03 00:49:15,15.08849099,0.0001375,53.2142,148.4523,88.105,272.01,0.00039257,5.967e-05,0.0,0 STARLINK-3911,1 52565U 22051AJ  23276.03420526  .00005967  00000-0  39257-3 0  9991,2 52565  53.2142 148.4523 0001375  88.1050 272.0100 15.08849099 77499,6917.853,95.437,540.669,538.766,0.0
52565.0,STARLINK-3911,PAYLOAD,2023-10-03 08:46:11,15.08840804,0.0001287,53.2141,146.9651,94.5906,265.5233,0.00015821,2.231e-05,0.0,0 STARLINK-3911,1 52565U 22051AJ  23276.36540699  .00002231  00000-0  15821-3 0  9993,2 52565  53.2141 146.9651 0001287  94.5906 265.5233 15.08840804 77541,6917.878,95.438,540.633,538.853,0.0
52565.0,STARLINK-3911,PAYLOAD,2023-10-03 21:29:16,15.08841673,0.0001394,53.2148,144.5842,99.8623,260.2526,0.00015825,2.232e-05,0.0,0 STARLINK-3911,1 52565U 22051AJ  23276.89532829  .00002232  00000-0  15825-3 0  9992,2 52565  53.2148 144.5842 0001394  99.8623 260.2526 15.08841673 77550,6917.875,95.437,540.705,538.776,0.0
52565.0,STARLINK-3911,PAYLOAD,2023-10-04 08:36:58,15.08843039,0.0001473,53.2149,142.5003,98.124,261.9919,0.00025233,3.73e-05,0.0,0 STARLINK-3911,1 52565U 22051AJ  23277.35900881  .00003730  00000-0  25233-3 0  9999,2 52565  53.2149 142.5003 0001473  98.1240 261.9919 15.08843039 77623,6917.871,95.437,540.755,538.717,0.0
52565.0,STARLINK-3911,PAYLOAD,2023-10-04 21:20:03,15.08851954,0.0001318,53.215,140.1242,91.4602,268.6541,0.00038034,5.772e-05,0.0,0 STARLINK-3911,1 52565U 22051AJ  23277.88892528  .00005772  00000-0  38034-3 0  9996,2 52565  53.2150 140.1242 0001318  91.4602 268.6541 15.08851954 77709,6917.844,95.437,540.621,538.797,0.0
52565.0,STARLINK-3911,PAYLOAD,2023-10-05 00:30:49,15.08855399,0.0001394,53.2155,139.5273,96.0099,264.1052,0.00043627,6.665e-05,0.0,0 STARLINK-3911,1 52565U 22051AJ  23278.02140315  .00006665  00000-0  43627-3 0  9999,2 52565  53.2155 139.5273 0001394  96.0099 264.1052 15.08855399 77799,6917.833,95.437,540.663,538.734,0.0
52565.0,STARLINK-3911,PAYLOAD,2023-10-05 08:27:45,15.08843474,0.0001435,53.2155,138.042,103.5059,256.6093,0.00013752,1.902e-05,0.0,0 STARLINK-3911,1 52565U 22051AJ  23278.35260607  .00001902  00000-0  13752-3 0  9997,2 52565  53.2155 138.0420 0001435 103.5059 256.6093 15.08843474 77841,6917.87,95.437,540.727,538.742,0.0
52565.0,STARLINK-3911,PAYLOAD,2023-10-05 21:10:50,15.08843495,0.000148,53.2146,135.6651,100.0121,260.1038,0.00019477,2.813e-05,0.0,0 STARLINK-3911,1 52565U 22051AJ  23278.88252692  .00002813  00000-0  19477-3 0  9992,2 52565  53.2146 135.6651 0001480 100.0121 260.1038 15.08843495 77855,6917.87,95.437,540.759,538.711,0.0
52565.0,STARLINK-3911,PAYLOAD,2023-10-06 21:01:37,15.08838277,0.0001324,53.2155,131.2041,87.4213,272.6931,5.3611e-05,5.65e-06,0.0,0 STARLINK-3911,1 52565U 22051AJ  23279.87613283  .00000565  00000-0  53611-4 0  9990,2 52565  53.2155 131.2041 0001324  87.4213 272.6931 15.08838277 78074,6917.886,95.438,540.667,538.835,0.0
52565.0,STARLINK-3911,PAYLOAD,2023-10-07 12:55:29,15.08838463,0.0001347,53.215,128.2311,90.7345,269.3802,0.00020724,3.012e-05,0.0,0 STARLINK-3911,1 52565U 22051AJ  23280.53853605  .00003012  00000-0  20724-3 0  9997,2 52565  53.2150 128.2311 0001347  90.7345 269.3802 15.08838463 78104,6917.885,95.438,540.682,538.818,0.0
52565.0,STARLINK-3911,PAYLOAD,2023-10-07 20:52:24,15.08849835,0.000133,53.2152,126.7441,88.2819,271.8326,0.00040138,6.107e-05,0.0,0 STARLINK-3911,1 52565U 22051AJ  23280.86973253  .00006107  00000-0  40138-3 0  9994,2 52565  53.2152 126.7441 0001330  88.2819 271.8326 15.08849835 78152,6917.85,95.437,540.635,538.795,0.0
52565.0,STARLINK-3911,PAYLOAD,2023-10-08 06:24:43,15.088518,0.0001305,53.2153,124.96,85.1522,274.9619,0.00039411,5.992e-05,0.0,0 STARLINK-3911,1 52565U 22051AJ  23281.26717084  .00005992  00000-0  39411-3 0  9990,2 52565  53.2153 124.9600 0001305  85.1522 274.9619 15.08851800 78287,6917.844,95.437,540.612,538.807,0.0
